SL-3 R/B                
1 13154U 82039B   25299.43740735  .00003097  00000+0  19125-3 0  9995
2 13154  81.1848  10.4681 0032880  44.8804 315.5070 15.09154324361381
SL-3 R/B                
1 13403U 82079B   25299.51467347  .00006156  00000+0  25960-3 0  9993
2 13403  81.1484 351.3023 0024553 258.4732 101.3743 15.22870891357261
SL-14 R/B               
1 13553U 82092B   25299.43785257  .00000928  00000+0  10183-3 0  9990
2 13553  82.5657 266.9496 0021298  30.7229  89.9404 14.86471504308981
SL-3 R/B                
1 13819U 83010B   25299.35480275  .00013103  00000+0  30695-3 0  9998
2 13819  81.1047 166.3817 0017926 150.5938 209.6317 15.41797769337213
SL-3 R/B                
1 14208U 83075B   25299.47431212  .00013450  00000+0  39799-3 0  9991
2 14208  97.6104 294.4199 0023218 354.6742   5.4250 15.34758636309544
COSMOS 1536             
1 14699U 84013A   25299.34185576  .00009228  00000+0  40565-3 0  9994
2 14699  82.5460 241.1329 0016927  40.9707 319.2797 15.21626349252174
SL-14 R/B               
1 14820U 84027B   25299.48229051  .00000667  00000+0  73701-4 0  9994
2 14820  82.5449  10.8681 0019342  60.5925 299.7219 14.85803836227702
SL-8 R/B                
1 15483U 85006B   25299.31690514  .00000256  00000+0  93710-4 0  9992
2 15483  74.0440 148.3829 0017414  96.8911  75.8341 14.37678845134715
SL-12 R/B(2)            
1 15772U 85042D   25299.46231453  .00000207  00000+0  11481-3 0  9992
2 15772  71.1104  11.2992 0036431 331.2321  39.3111 14.21929978 95312
SL-14 R/B               
1 15945U 85069B   25299.30555873  .00000610  00000+0  66533-4 0  9998
2 15945  82.5262 151.2978 0017359 278.6421  81.2829 14.86244547152877
SL-16 R/B               
1 16182U 85097B   25299.46885924  .00000307  00000+0  17767-3 0  9990
2 16182  71.0031  63.1176 0005296 105.5265 318.3117 14.16573401 68226
SL-14 R/B               
1 16496U 86006B   25299.51693544  .00000838  00000+0  86802-4 0  9996
2 16496  82.5302  25.9742 0076781 358.6266   1.4726 14.86577325129271
