CCSDS_OMM_VERS = 2.0
CREATION_DATE  = 
ORIGINATOR     = 

OBJECT_NAME    = SL-3 R/B
OBJECT_ID      = 1982-039B
CENTER_NAME    = EARTH
REF_FRAME      = TEME
TIME_SYSTEM    = UTC
MEAN_ELEMENT_THEORY = SGP/SGP4

EPOCH          = 2025-10-26T10:29:51.995040
MEAN_MOTION    = 15.09154324
ECCENTRICITY   = .003288
INCLINATION    = 81.1848
RA_OF_ASC_NODE = 10.4681
ARG_OF_PERICENTER = 44.8804
MEAN_ANOMALY   = 315.5070

EPHEMERIS_TYPE = 0
CLASSIFICATION_TYPE = U
NORAD_CAT_ID   = 13154
ELEMENT_SET_NO = 999
REV_AT_EPOCH   = 36138
BSTAR          = .19125E-3
MEAN_MOTION_DOT = .3097E-4
MEAN_MOTION_DDOT = 0

CCSDS_OMM_VERS = 2.0
CREATION_DATE  = 
ORIGINATOR     = 

OBJECT_NAME    = SL-3 R/B
OBJECT_ID      = 1982-079B
CENTER_NAME    = EARTH
REF_FRAME      = TEME
TIME_SYSTEM    = UTC
MEAN_ELEMENT_THEORY = SGP/SGP4

EPOCH          = 2025-10-26T12:21:07.787808
MEAN_MOTION    = 15.22870891
ECCENTRICITY   = .0024553
INCLINATION    = 81.1484
RA_OF_ASC_NODE = 351.3023
ARG_OF_PERICENTER = 258.4732
MEAN_ANOMALY   = 101.3743

EPHEMERIS_TYPE = 0
CLASSIFICATION_TYPE = U
NORAD_CAT_ID   = 13403
ELEMENT_SET_NO = 999
REV_AT_EPOCH   = 35726
BSTAR          = .2596E-3
MEAN_MOTION_DOT = .6156E-4
MEAN_MOTION_DDOT = 0

CCSDS_OMM_VERS = 2.0
CREATION_DATE  = 
ORIGINATOR     = 

OBJECT_NAME    = SL-14 R/B
OBJECT_ID      = 1982-092B
CENTER_NAME    = EARTH
REF_FRAME      = TEME
TIME_SYSTEM    = UTC
MEAN_ELEMENT_THEORY = SGP/SGP4

EPOCH          = 2025-10-26T10:30:30.462048
MEAN_MOTION    = 14.86471504
ECCENTRICITY   = .0021298
INCLINATION    = 82.5657
RA_OF_ASC_NODE = 266.9496
ARG_OF_PERICENTER = 30.7229
MEAN_ANOMALY   = 89.9404

EPHEMERIS_TYPE = 0
CLASSIFICATION_TYPE = U
NORAD_CAT_ID   = 13553
ELEMENT_SET_NO = 999
REV_AT_EPOCH   = 30898
BSTAR          = .10183E-3
MEAN_MOTION_DOT = .928E-5
MEAN_MOTION_DDOT = 0

CCSDS_OMM_VERS = 2.0
CREATION_DATE  = 
ORIGINATOR     = 

OBJECT_NAME    = SL-3 R/B
OBJECT_ID      = 1983-010B
CENTER_NAME    = EARTH
REF_FRAME      = TEME
TIME_SYSTEM    = UTC
MEAN_ELEMENT_THEORY = SGP/SGP4

EPOCH          = 2025-10-26T08:30:54.957600
MEAN_MOTION    = 15.41797769
ECCENTRICITY   = .0017926
INCLINATION    = 81.1047
RA_OF_ASC_NODE = 166.3817
ARG_OF_PERICENTER = 150.5938
MEAN_ANOMALY   = 209.6317

EPHEMERIS_TYPE = 0
CLASSIFICATION_TYPE = U
NORAD_CAT_ID   = 13819
ELEMENT_SET_NO = 999
REV_AT_EPOCH   = 33721
BSTAR          = .30695E-3
MEAN_MOTION_DOT = .13103E-3
MEAN_MOTION_DDOT = 0

CCSDS_OMM_VERS = 2.0
CREATION_DATE  = 
ORIGINATOR     = 

OBJECT_NAME    = SL-3 R/B
OBJECT_ID      = 1983-075B
CENTER_NAME    = EARTH
REF_FRAME      = TEME
TIME_SYSTEM    = UTC
MEAN_ELEMENT_THEORY = SGP/SGP4

EPOCH          = 2025-10-26T11:23:00.567168
MEAN_MOTION    = 15.34758636
ECCENTRICITY   = .0023218
INCLINATION    = 97.6104
RA_OF_ASC_NODE = 294.4199
ARG_OF_PERICENTER = 354.6742
MEAN_ANOMALY   = 5.4250

EPHEMERIS_TYPE = 0
CLASSIFICATION_TYPE = U
NORAD_CAT_ID   = 14208
ELEMENT_SET_NO = 999
REV_AT_EPOCH   = 30954
BSTAR          = .39799E-3
MEAN_MOTION_DOT = .1345E-3
MEAN_MOTION_DDOT = 0

CCSDS_OMM_VERS = 2.0
CREATION_DATE  = 
ORIGINATOR     = 

OBJECT_NAME    = COSMOS 1536
OBJECT_ID      = 1984-013A
CENTER_NAME    = EARTH
REF_FRAME      = TEME
TIME_SYSTEM    = UTC
MEAN_ELEMENT_THEORY = SGP/SGP4

EPOCH          = 2025-10-26T08:12:16.337664
MEAN_MOTION    = 15.21626349
ECCENTRICITY   = .0016927
INCLINATION    = 82.5460
RA_OF_ASC_NODE = 241.1329
ARG_OF_PERICENTER = 40.9707
MEAN_ANOMALY   = 319.2797

EPHEMERIS_TYPE = 0
CLASSIFICATION_TYPE = U
NORAD_CAT_ID   = 14699
ELEMENT_SET_NO = 999
REV_AT_EPOCH   = 25217
BSTAR          = .40565E-3
MEAN_MOTION_DOT = .9228E-4
MEAN_MOTION_DDOT = 0

CCSDS_OMM_VERS = 2.0
CREATION_DATE  = 
ORIGINATOR     = 

OBJECT_NAME    = SL-14 R/B
OBJECT_ID      = 1984-027B
CENTER_NAME    = EARTH
REF_FRAME      = TEME
TIME_SYSTEM    = UTC
MEAN_ELEMENT_THEORY = SGP/SGP4

EPOCH          = 2025-10-26T11:34:29.900064
MEAN_MOTION    = 14.85803836
ECCENTRICITY   = .0019342
INCLINATION    = 82.5449
RA_OF_ASC_NODE = 10.8681
ARG_OF_PERICENTER = 60.5925
MEAN_ANOMALY   = 299.7219

EPHEMERIS_TYPE = 0
CLASSIFICATION_TYPE = U
NORAD_CAT_ID   = 14820
ELEMENT_SET_NO = 999
REV_AT_EPOCH   = 22770
BSTAR          = .73701E-4
MEAN_MOTION_DOT = .667E-5
MEAN_MOTION_DDOT = 0

CCSDS_OMM_VERS = 2.0
CREATION_DATE  = 
ORIGINATOR     = 

OBJECT_NAME    = SL-8 R/B
OBJECT_ID      = 1985-006B
CENTER_NAME    = EARTH
REF_FRAME      = TEME
TIME_SYSTEM    = UTC
MEAN_ELEMENT_THEORY = SGP/SGP4

EPOCH          = 2025-10-26T07:36:20.604096
MEAN_MOTION    = 14.37678845
ECCENTRICITY   = .0017414
INCLINATION    = 74.0440
RA_OF_ASC_NODE = 148.3829
ARG_OF_PERICENTER = 96.8911
MEAN_ANOMALY   = 75.8341

EPHEMERIS_TYPE = 0
CLASSIFICATION_TYPE = U
NORAD_CAT_ID   = 15483
ELEMENT_SET_NO = 999
REV_AT_EPOCH   = 13471
BSTAR          = .9371E-4
MEAN_MOTION_DOT = .256E-5
MEAN_MOTION_DDOT = 0

CCSDS_OMM_VERS = 2.0
CREATION_DATE  = 
ORIGINATOR     = 

OBJECT_NAME    = SL-12 R/B(2)
OBJECT_ID      = 1985-042D
CENTER_NAME    = EARTH
REF_FRAME      = TEME
TIME_SYSTEM    = UTC
MEAN_ELEMENT_THEORY = SGP/SGP4

EPOCH          = 2025-10-26T11:05:43.975392
MEAN_MOTION    = 14.21929978
ECCENTRICITY   = .0036431
INCLINATION    = 71.1104
RA_OF_ASC_NODE = 11.2992
ARG_OF_PERICENTER = 331.2321
MEAN_ANOMALY   = 39.3111

EPHEMERIS_TYPE = 0
CLASSIFICATION_TYPE = U
NORAD_CAT_ID   = 15772
ELEMENT_SET_NO = 999
REV_AT_EPOCH   = 9531
BSTAR          = .11481E-3
MEAN_MOTION_DOT = .207E-5
MEAN_MOTION_DDOT = 0

CCSDS_OMM_VERS = 2.0
CREATION_DATE  = 
ORIGINATOR     = 

OBJECT_NAME    = SL-14 R/B
OBJECT_ID      = 1985-069B
CENTER_NAME    = EARTH
REF_FRAME      = TEME
TIME_SYSTEM    = UTC
MEAN_ELEMENT_THEORY = SGP/SGP4

EPOCH          = 2025-10-26T07:20:00.274272
MEAN_MOTION    = 14.86244547
ECCENTRICITY   = .0017359
INCLINATION    = 82.5262
RA_OF_ASC_NODE = 151.2978
ARG_OF_PERICENTER = 278.6421
MEAN_ANOMALY   = 81.2829

EPHEMERIS_TYPE = 0
CLASSIFICATION_TYPE = U
NORAD_CAT_ID   = 15945
ELEMENT_SET_NO = 999
REV_AT_EPOCH   = 15287
BSTAR          = .66533E-4
MEAN_MOTION_DOT = .61E-5
MEAN_MOTION_DDOT = 0

CCSDS_OMM_VERS = 2.0
CREATION_DATE  = 
ORIGINATOR     = 

OBJECT_NAME    = SL-16 R/B
OBJECT_ID      = 1985-097B
CENTER_NAME    = EARTH
REF_FRAME      = TEME
TIME_SYSTEM    = UTC
MEAN_ELEMENT_THEORY = SGP/SGP4

EPOCH          = 2025-10-26T11:15:09.438336
MEAN_MOTION    = 14.16573401
ECCENTRICITY   = .0005296
INCLINATION    = 71.0031
RA_OF_ASC_NODE = 63.1176
ARG_OF_PERICENTER = 105.5265
MEAN_ANOMALY   = 318.3117

EPHEMERIS_TYPE = 0
CLASSIFICATION_TYPE = U
NORAD_CAT_ID   = 16182
ELEMENT_SET_NO = 999
REV_AT_EPOCH   = 6822
BSTAR          = .17767E-3
MEAN_MOTION_DOT = .307E-5
MEAN_MOTION_DDOT = 0

CCSDS_OMM_VERS = 2.0
CREATION_DATE  = 
ORIGINATOR     = 

OBJECT_NAME    = SL-14 R/B
OBJECT_ID      = 1986-006B
CENTER_NAME    = EARTH
REF_FRAME      = TEME
TIME_SYSTEM    = UTC
MEAN_ELEMENT_THEORY = SGP/SGP4

EPOCH          = 2025-10-26T12:24:23.222016
MEAN_MOTION    = 14.86577325
ECCENTRICITY   = .0076781
INCLINATION    = 82.5302
RA_OF_ASC_NODE = 25.9742
ARG_OF_PERICENTER = 358.6266
MEAN_ANOMALY   = 1.4726

EPHEMERIS_TYPE = 0
CLASSIFICATION_TYPE = U
NORAD_CAT_ID   = 16496
ELEMENT_SET_NO = 999
REV_AT_EPOCH   = 12927
BSTAR          = .86802E-4
MEAN_MOTION_DOT = .838E-5
MEAN_MOTION_DDOT = 0

